SKYSAT-A                
1 39418U 13066C   26190.54461547  .00002223  00000+0  12862-3 0  9995
2 39418  97.3805 239.2292 0020025 233.9327 126.0050 15.13096648691863
SKYSAT-B                
1 40072U 14037D   26190.44965851  .00000906  00000+0  10519-3 0  9991
2 40072  98.3850 150.6859 0005112 191.8576 168.2520 14.88083411649278
SKYSAT-C1               
1 41601U 16040C   26190.35925114  .00006902  00000+0  19474-3 0  9995
2 41601  96.9561 220.8806 0000919   6.2368 353.8888 15.36681886561276
SKYSAT-C4               
1 41771U 16058B   26191.33065229  .00013127  00000+0  24129-3 0  9993
2 41771  96.9171 212.1432 0003294 125.0872 235.0690 15.49327873549050
SKYSAT-C5               
1 41772U 16058C   26190.92648947  .00007436  00000+0  22860-3 0  9998
2 41772  97.0465 230.5527 0002034 135.3938 224.7470 15.33955160547234
SKYSAT-C2               
1 41773U 16058D   26189.99420614  .00008655  00000+0  20102-3 0  9994
2 41773  97.0167 211.2736 0002219  17.2519 342.8804 15.42580195548416
SKYSAT-C3               
1 41774U 16058E   26191.01715193  .00018005  00000+0  28437-3 0  9999
2 41774  96.9003 220.9981 0002189 133.5121 226.6316 15.53540793549656
SKYSAT-C11              
1 42987U 17068A   26190.65835404  .00021499  00000+0  27645-3 0  9996
2 42987  97.4368 340.4901 0000812 166.0165 194.1114 15.59105762486747
SKYSAT-C10              
1 42988U 17068B   26190.65457372  .00007814  00000+0  23222-3 0  9993
2 42988  97.4523 327.7297 0001360 109.0541 251.0850 15.35042344485807
SKYSAT-C9               
1 42989U 17068C   26190.62943440  .00009130  00000+0  21510-3 0  9998
2 42989  97.4443 328.8561 0009064  62.2816 297.9350 15.42121068486218
SKYSAT-C8               
1 42990U 17068D   26190.65650340  .00007514  00000+0  20712-3 0  9994
2 42990  97.4543 327.6181 0001224  99.9689 260.1694 15.37418486485760
SKYSAT-C7               
1 42991U 17068E   26191.17151926  .00007419  00000+0  20468-3 0  9991
2 42991  97.4551 329.1314 0006142  37.9429 322.2247 15.37378749485900
SKYSAT-C6               
1 42992U 17068F   26190.64887445  .00006518  00000+0  19987-3 0  9998
2 42992  97.4588 328.4799 0005162 103.1836 256.9983 15.34106572485763
SKYSAT-C12              
1 43797U 18099AR  26191.28204006  .00013704  00000+0  24871-3 0  9997
2 43797  96.9262 213.5994 0005681  80.9590 279.2305 15.49671741425431
